2353 Alva,e,4.801528,25.054443,300.34436,2.804271428,0.2098814246,0.11281375,224.712285,11/13/1996,2000,H11.8,0.15
2354 Lavrov,e,3.257623,176.233607,188.739281,2.730314069,0.2184666572,0.10339289,346.04834,11/13/1996,2000,H11.8,0.15
2355 Nei Monggol,e,10.000664,54.087572,281.358812,3.019743747,0.1878230713,0.1159207,215.385297,11/13/1996,2000,H11.4,0.15
2356 Hirons,e,15.597571,189.276407,13.304992,3.233258201,0.1695288017,0.03936497,184.816481,11/13/1996,2000,H10.8,0.15
2357 Phereclos,e,2.668704,179.423156,70.612785,5.181071049,0.0835746857,0.04479752,353.07556,11/13/1996,2000,H8.94,0.15
2358 Bahner,e,9.706461,345.065327,45.880754,3.024791529,0.1873531079,0.10009633,251.267071,11/13/1996,2000,H11,0.15
2359 Debehogne,e,4.33243,206.277739,76.324535,2.426039929,0.2608297693,0.11414543,158.681297,11/13/1996,2000,H12.9,0.15
2360 Volgo-Don,e,3.393216,38.52777,2.123483,2.674427466,0.2253501431,0.19305094,289.528763,11/13/1996,2000,H12.4,0.15
2361 Gogol,e,1.625891,43.162792,88.24607,3.137703731,0.1773316164,0.14212035,304.976208,11/13/1996,2000,H11.7,0.15
2362 Mark Twain,e,3.955839,9.211843,350.35623,2.195676604,0.3029364366,0.19277512,70.40534,11/13/1996,2000,H13.7,0.15
2363 Cebriones,e,32.229048,211.901956,50.703794,5.142732898,0.0845109767,0.03697139,348.264894,11/13/1996,2000,H9.11,0.15
2364 Seillier,e,10.71081,42.981593,171.251348,3.177844193,0.1739823423,0.13569558,96.551477,11/13/1996,2000,H10.7,0.15
2365 Interkosmos,e,5.334366,283.095325,208.98382,2.544386724,0.2428451266,0.11674573,313.922665,11/13/1996,2000,H11.7,0.15
2366 Aaryn,e,1.085387,308.649751,110.479547,2.240493907,0.2938924458,0.12676137,313.19994,11/13/1996,2000,H13.8,0.15
2367 Praha,e,1.87251,191.06411,297.786558,2.206246093,0.3007621242,0.09998539,284.914351,11/13/1996,2000,H13.2,0.15
2368 Beltrovata,e,5.250916,287.810543,42.184556,2.1049401,0.3227338073,0.41372775,107.383136,11/13/1996,2000,H15.21,0.15
2369 Chekhov,e,2.63617,48.174701,240.591332,2.781601009,0.2124524878,0.04737577,71.812204,11/13/1996,2000,H11.8,0.15
2370 van Altena,e,8.268577,10.583106,314.853349,2.713596122,0.2204886605,0.18614047,332.490147,11/13/1996,2000,H12.6,0.15
2371 Dimitrov,e,1.77753,235.613502,278.599674,2.440388325,0.2585328096,0.012433,70.199777,11/13/1996,2000,H12.5,0.15
2372 Proskurin,e,2.748646,98.416064,318.82965,3.102812926,0.1803311224,0.18631635,147.421944,11/13/1996,2000,H11.6,0.15
2373 Immo,e,10.081105,146.67597,215.388908,2.796748242,0.2107288578,0.17118692,108.191546,11/13/1996,2000,H12.5,0.15
2374 Vladvysotskij,e,15.055795,347.81086,13.031458,3.092811559,0.1812065468,0.2052213,25.383695,11/13/1996,2000,H11.5,0.15
2375 Radek,e,15.009397,110.904034,102.690552,3.171231508,0.1745268106,0.21910983,222.402265,11/13/1996,2000,H10.61,0.15
2376 Martynov,e,3.856996,61.946556,297.344756,3.212679618,0.1711602637,0.10148255,106.907564,11/13/1996,2000,H10.9,0.15
2377 Shcheglov,e,1.007152,263.47834,159.218912,2.87864662,0.2018001766,0.05717248,191.707614,11/13/1996,2000,H12,0.15
2378 Pannekoek,e,14.239678,181.330922,266.245099,2.890071485,0.2006047427,0.1408026,259.4002,11/13/1996,2000,H10.7,0.15
2379 Heiskanen,e,0.466016,151.050631,178.612666,3.167980136,0.1747955609,0.27455427,243.626171,11/13/1996,2000,H10.9,0.15
2380 Heilongjiang,e,1.925542,324.908507,107.910667,2.191623965,0.3037770868,0.06025645,161.2085,11/13/1996,2000,H13.2,0.15
2381 Landi,e,13.607212,150.565377,277.336823,2.611117483,0.2335954907,0.16793567,9.503384,11/13/1996,2000,H11.4,0.15
2382 Nonie,e,31.057382,246.399426,66.249071,2.757686087,0.2152220838,0.3303328,51.452399,11/13/1996,2000,H11.4,0.15
2383 Bradley,e,3.573889,14.618852,183.817655,2.218009982,0.2983725249,0.10499159,256.399714,11/13/1996,2000,H13.4,0.15
2384 Schulhof,e,13.569367,8.305826,204.479974,2.608994259,0.233880702,0.12356784,234.528154,11/13/1996,2000,H12.2,0.15
2385 Mustel,e,4.076319,153.379256,190.070719,2.242622245,0.2934741715,0.16064086,62.472976,11/13/1996,2000,H13.2,0.15
2386 Nikonov,e,9.086605,5.402369,310.774729,2.813229415,0.2088797549,0.15821767,279.503383,11/13/1996,2000,H12.2,0.15
2387 Xi'an,e,10.965171,53.625442,36.929288,3.020083274,0.1877913987,0.07858059,109.421975,11/13/1996,2000,H11.3,0.15
2388 Gase,e,2.218668,324.714254,254.089294,2.44992424,0.2570248366,0.18081502,23.187929,11/13/1996,2000,H12.9,0.15
2389 Dibaj,e,7.814546,334.26446,336.740747,2.444645531,0.2578577742,0.23123296,32.26339,11/13/1996,2000,H12.9,0.15
2390 Nezarka,e,10.36254,326.043634,354.719473,2.618766831,0.2325727492,0.14779542,310.3078,11/13/1996,2000,H12.2,0.15
2391 Tomita,e,2.998104,163.609581,281.436917,2.441410565,0.2583704517,0.13486433,182.146156,11/13/1996,2000,H12.4,0.15
2392 Jonathan Murray,e,3.360411,141.421777,301.508889,2.344286538,0.2745920969,0.15407332,160.768826,11/13/1996,2000,H13.2,0.15
2393 Suzuki,e,10.178868,226.212871,105.437393,3.225512898,0.1701397928,0.19246163,102.003804,11/13/1996,2000,H10.5,0.15
2394 Nadeev,e,1.623978,127.551073,301.447287,3.185807591,0.1733304082,0.20235922,336.403487,11/13/1996,2000,H11.6,0.15
2395 Aho,e,0.300378,99.083861,158.165621,3.078435249,0.182477381,0.05421447,132.964477,11/13/1996,2000,H12.6,0.15
2396 Kochi,e,12.600293,158.747525,50.679571,2.795686608,0.2108489025,0.07247719,90.350268,11/13/1996,2000,H11.6,0.15
2397 Lappajarvi,e,10.294921,145.955362,299.0087,3.087214523,0.1816995539,0.1770559,357.883352,11/13/1996,2000,H10.9,0.15
2398 Jilin,e,3.740696,88.277923,11.081004,2.390610343,0.2666495669,0.23810283,108.517089,11/13/1996,2000,H13.6,0.15
2399 Terradas,e,5.124449,146.390202,159.5048,2.240008695,0.2939879417,0.16923292,181.592985,11/13/1996,2000,H13.2,0.15
2400 Derevskaya,e,10.408921,172.193772,140.262074,3.003229767,0.1893743844,0.09641258,206.567034,11/13/1996,2000,H11.9,0.15
2401 Aehlita,e,4.332498,51.21764,37.017567,2.769161403,0.2138856606,0.06057211,141.201396,11/13/1996,2000,H12.2,0.15
2402 Satpaev,e,5.173661,337.915093,64.28075,2.222154725,0.2975381316,0.13041332,18.746843,11/13/1996,2000,H13.2,0.15
2403 Sumava,e,3.295795,290.747055,39.080967,2.547748863,0.2423645791,0.1277372,98.36029,11/13/1996,2000,H12.5,0.15
2404 Antarctica,e,2.691552,111.031189,148.814321,3.119534708,0.1788831117,0.13986609,71.48569,11/13/1996,2000,H11.4,0.15
2405 Welch,e,2.229854,128.499923,356.958324,3.225568549,0.1701353897,0.12089787,174.778058,11/13/1996,2000,H12.09,0.15
2406 Orelskaya,e,2.311507,12.699174,347.438831,2.192873939,0.3035173869,0.16311644,91.773231,11/13/1996,2000,H13.5,0.15
2407 Haug,e,2.473732,342.587433,9.645891,2.926393624,0.1968815234,0.21558592,56.060143,11/13/1996,2000,H10.77,0.15
2408 Astapovich,e,17.667432,164.940429,101.846981,2.635766572,0.2303263658,0.24463009,141.906561,11/13/1996,2000,H12.5,0.15
2409 Chapman,e,3.510553,140.889192,207.5307,2.26592468,0.2889587629,0.19079004,23.50968,11/13/1996,2000,H13.2,0.15
2410 Morrison,e,2.394516,126.640617,61.807515,2.215563541,0.2988668589,0.0632098,247.995811,11/13/1996,2000,H13,0.15
2411 Zellner,e,1.613502,131.063722,129.407871,2.225820757,0.2968033454,0.08606838,211.334695,11/13/1996,2000,H12.75,0.15
2412 Wil,e,7.115132,303.904179,341.250281,2.68019622,0.2246229819,0.14746442,153.576211,11/13/1996,2000,H12,0.15
2413 van de Hulst,e,10.643539,166.779199,251.290789,3.019419088,0.1878533653,0.10764429,276.831238,11/13/1996,2000,H10.8,0.15
2414 Vibeke,e,16.74202,357.411141,50.174729,3.20386681,0.1718669594,0.12338614,87.108158,11/13/1996,2000,H10.91,0.15
2415 Ganesa,e,2.374532,89.874161,204.153665,2.659753774,0.2272175764,0.03710693,152.160344,11/13/1996,2000,H12,0.15
2416 Sharonov,e,10.496448,148.940947,95.706434,3.013151986,0.1884397486,0.04583582,188.984649,11/13/1996,2000,H11.4,0.15
2417 McVittie,e,3.105367,84.761173,20.414983,3.188590895,0.1731035089,0.21611521,283.381524,11/13/1996,2000,H11.8,0.15
2418 1971 UV,e,1.329486,31.799836,30.584856,3.112766075,0.1794668942,0.17251161,187.482833,11/13/1996,2000,H12.5,0.15
2419 Moldavia,e,6.390609,168.165704,260.954623,2.296007585,0.2832983834,0.09252009,68.341093,11/13/1996,2000,H13.6,0.15
2420 Ciurlionis,e,14.632569,205.848086,197.710079,2.560722302,0.2405250691,0.13267359,28.078353,11/13/1996,2000,H12.2,0.15
2421 Nininger,e,10.171463,77.972203,267.350169,3.232036425,0.1696249388,0.05171641,29.521182,11/13/1996,2000,H10.8,0.15
2422 Perovskaya,e,6.399685,160.193771,52.192249,2.328840555,0.2773284604,0.19741516,16.365257,11/13/1996,2000,H13.7,0.15
2423 Ibarruri,e,4.059552,265.429197,79.837379,2.188675962,0.3043910451,0.28260832,162.30932,11/13/1996,2000,H13.2,0.15
2424 Tautenburg,e,8.909454,30.506135,91.662097,2.349279734,0.2737171286,0.13517636,65.853999,11/13/1996,2000,H12.9,0.15
2425 Shenzhen,e,10.862223,52.916839,247.158035,2.999866573,0.1896929392,0.09549391,288.620124,11/13/1996,2000,H11.1,0.15
2426 Simonov,e,8.4763,237.593248,5.779153,2.912551758,0.1982867051,0.11765218,38.339444,11/13/1996,2000,H11.4,0.15
2427 Kobzar,e,4.147826,227.924175,170.752951,2.738825532,0.2174490538,0.16585455,178.916729,11/13/1996,2000,H12.8,0.15
2428 Kamenyar,e,9.338829,8.828809,355.843367,3.170244097,0.1746083547,0.0858635,146.317845,11/13/1996,2000,H11,0.15
2429 Schurer,e,15.027515,18.138624,29.357663,2.571481426,0.2390171074,0.10216538,206.89373,11/13/1996,2000,H12.2,0.15
2430 Bruce Helin,e,23.418555,46.102272,309.296206,2.36327291,0.271289671,0.21423138,119.837476,11/13/1996,2000,H12.24,0.15
2431 Skovoroda,e,2.968058,329.293302,338.252203,2.646776467,0.2288907156,0.27955147,99.567722,11/13/1996,2000,H12.8,0.15
2432 Soomana,e,6.770566,8.126628,80.162618,2.352930086,0.2730804058,0.11194556,203.594093,11/13/1996,2000,H12.8,0.15
2433 Sootiyo,e,10.400317,188.923518,68.92429,2.607686644,0.234056642,0.21912633,217.282153,11/13/1996,2000,H11.8,0.15
2434 Bateson,e,15.617265,27.550831,286.905025,3.084244863,0.1819620407,0.1668683,246.650719,11/13/1996,2000,H11.1,0.15
2435 Horemheb,e,3.962985,162.719689,183.327976,2.203150512,0.3013962346,0.20487938,28.715358,11/13/1996,2000,H14.9,0.15
2436 Hatshepsut,e,4.08561,234.39474,291.024064,3.165841759,0.1749726901,0.1163563,353.823011,11/13/1996,2000,H12.1,0.15
